{ "43800": {"name": "ICEYE-X2", "norad_id": "43800", "line1": "1 43800U 18099AU  26187.32591237  .00005067  00000+0  25251-3 0  9993", "line2": "2 43800  97.4342 240.8318 0008886 227.8978 132.1501 15.17969263415726", "country": "Finland", "operator": "ICEYE", "sensor": "SAR", "resolution_m": 3.0, "notes": "book:ICEYE-X(2-7,11-14,17-19,", "fetched_at": 1783341756.1850367, "stale": false}, "44390": {"name": "ICEYE-X4", "norad_id": "44390", "line1": "1 44390U 19038D   26187.30127935  .00010524  00000+0  36726-3 0  9993", "line2": "2 44390  97.8750 221.3419 0012032 230.9502 129.0667 15.29743269384722", "country": "Finland", "operator": "ICEYE", "sensor": "SAR", "resolution_m": 3.0, "notes": "book:ICEYE-X(2-7,11-14,17-19,", "fetched_at": 1783341756.6733842, "stale": false}, "46496": {"name": "ICEYE-X7", "norad_id": "46496", "line1": "1 46496U 20068L   26187.28266060  .00010777  00000+0  35167-3 0  9995", "line2": "2 46496  97.7505 154.6826 0005300 253.4440 106.6219 15.31961867317717", "country": "Finland", "operator": "ICEYE", "sensor": "SAR", "resolution_m": 3.0, "notes": "book:ICEYE-X(2-7,11-14,17-19,", "fetched_at": 1783341757.1734142, "stale": false}, "46497": {"name": "ICEYE-X6", "norad_id": "46497", "line1": "1 46497U 20068M   26187.14532772  .00003383  00000+0  24546-3 0  9991", "line2": "2 46497  98.0972 181.7240 0007897  36.2762 323.8997 15.04626372316082", "country": "Finland", "operator": "ICEYE", "sensor": "SAR", "resolution_m": 3.0, "notes": "book:ICEYE-X(2-7,11-14,17-19,", "fetched_at": 1783341757.5066895, "stale": false}, "55049": {"name": "ICEYE-X21", "norad_id": "55049", "line1": "1 55049U 23001AS  26175.21618542  .01585954  23968-5  60214-3 0  9995", "line2": "2 55049  97.3001 262.6152 0012377 285.9702  74.0225 16.24069885194757", "country": "Finland", "operator": "ICEYE", "sensor": "SAR", "resolution_m": 3.0, "notes": "book:ICEYE-X(2-7,11-14,17-19,", "fetched_at": 1783341758.1747103, "stale": false}, "56963": {"name": "ICEYE-X25", "norad_id": "56963", "line1": "1 56963U 23084AH  26187.28675543  .00045107  00000+0  51280-3 0  9995", "line2": "2 56963  97.5908 334.8767 0003809 213.8733 146.2282 15.62185786170950", "country": "Finland", "operator": "ICEYE", "sensor": "SAR", "resolution_m": 3.0, "notes": "book:ICEYE-X(2-7,11-14,17-19,", "fetched_at": 1783341758.5281148, "stale": false}, "58288": {"name": "ICEYE-X31", "norad_id": "58288", "line1": "1 58288U 23174AJ  26187.30707992  .00015411  00000+0  45625-3 0  9995", "line2": "2 58288  97.3769 263.0492 0001801 215.3161 144.7964 15.34972177147686", "country": "Finland", "operator": "ICEYE", "sensor": "SAR", "resolution_m": 3.0, "notes": "book:ICEYE-X(2-7,11-14,17-19,", "fetched_at": 1783341758.8900044, "stale": false}, "58294": {"name": "ICEYE-X34", "norad_id": "58294", "line1": "1 58294U 23174AQ  26186.82554101  .00160846  00000+0  13724-2 0  9997", "line2": "2 58294  97.3865 278.9665 0001831 177.4693 182.6578 15.69018717148668", "country": "Finland", "operator": "ICEYE", "sensor": "SAR", "resolution_m": 3.0, "notes": "book:ICEYE-X(2-7,11-14,17-19,", "fetched_at": 1783341759.2245736, "stale": false}, "58302": {"name": "ICEYE-X35", "norad_id": "58302", "line1": "1 58302U 23174AY  26187.30913480  .00050116  00000+0  75942-3 0  9999", "line2": "2 58302  97.3782 272.4326 0008480 135.5744 224.6191 15.54452386148316", "country": "Finland", "operator": "ICEYE", "sensor": "SAR", "resolution_m": 3.0, "notes": "book:ICEYE-X(2-7,11-14,17-19,", "fetched_at": 1783341759.5603216, "stale": false}, "59100": {"name": "ICEYE-X38", "norad_id": "59100", "line1": "1 59100U 24043C   26187.29754620  .00004466  00000+0  25667-3 0  9995", "line2": "2 59100  97.8428 331.5741 0003047  44.5769 315.5705 15.13036967114562", "country": "Finland", "operator": "ICEYE", "sensor": "SAR", "resolution_m": 3.0, "notes": "book:ICEYE-X(2-7,11-14,17-19,", "fetched_at": 1783341759.907938, "stale": false}, "59102": {"name": "ICEYE-X37", "norad_id": "59102", "line1": "1 59102U 24043E   26187.11451416  .00004508  00000+0  31100-3 0  9991", "line2": "2 59102  97.8342 324.4161 0013832 308.3601  51.6381 15.06255484127937", "country": "Finland", "operator": "ICEYE", "sensor": "SAR", "resolution_m": 3.0, "notes": "book:ICEYE-X(2-7,11-14,17-19,", "fetched_at": 1783341760.2774413, "stale": false}, "59103": {"name": "ICEYE-X36", "norad_id": "59103", "line1": "1 59103U 24043F   26187.17394343  .00004289  00000+0  28927-3 0  9992", "line2": "2 59103  97.8398 325.5866 0004477 248.5893 111.4857 15.07191348128007", "country": "Finland", "operator": "ICEYE", "sensor": "SAR", "resolution_m": 3.0, "notes": "book:ICEYE-X(2-7,11-14,17-19,", "fetched_at": 1783341760.6283576, "stale": false}, "60539": {"name": "ICEYE-X43", "norad_id": "60539", "line1": "1 60539U 24149BZ  26187.17795352  .00003860  00000+0  31698-3 0  9992", "line2": "2 60539  97.6814 263.8878 0007245  25.2112 334.9464 14.99762021102965", "country": "Finland", "operator": "ICEYE", "sensor": "SAR", "resolution_m": 3.0, "notes": "book:ICEYE-X(2-7,11-14,17-19,", "fetched_at": 1783341760.974369, "stale": false}, "60546": {"name": "ICEYE-X39", "norad_id": "60546", "line1": "1 60546U 24149CG  26187.15614424  .00004568  00000+0  37158-3 0  9991", "line2": "2 60546  97.6762 263.9225 0006918  70.3542 289.8428 15.00026820102967", "country": "Finland", "operator": "ICEYE", "sensor": "SAR", "resolution_m": 3.0, "notes": "book:ICEYE-X(2-7,11-14,17-19,", "fetched_at": 1783341761.3096585, "stale": false}, "60548": {"name": "ICEYE-X33", "norad_id": "60548", "line1": "1 60548U 24149CJ  26187.16966096  .00005302  00000+0  42091-3 0  9998", "line2": "2 60548  97.7328 266.2123 0001931  77.3780 282.7660 15.00913216103057", "country": "Finland", "operator": "ICEYE", "sensor": "SAR", "resolution_m": 3.0, "notes": "book:ICEYE-X(2-7,11-14,17-19,", "fetched_at": 1783341761.6440713, "stale": false}}