{"fetched_at":"2026-07-06T18:35:38.131Z","source":"https://celestrak.org/NORAD/elements/gp.php?NAME=ICEYE&FORMAT=JSON","constellation":"iceye","records":[{"OBJECT_NAME":"ICEYE-X2","OBJECT_ID":"2018-099AU","EPOCH":"2026-07-06T07:49:18.828768","CLASSIFICATION_TYPE":"U","MEAN_MOTION":15.17969263,"ECCENTRICITY":0.00088868,"INCLINATION":97.4342,"RA_OF_ASC_NODE":240.8318,"ARG_OF_PERICENTER":227.8978,"MEAN_ANOMALY":132.1501,"EPHEMERIS_TYPE":0,"NORAD_CAT_ID":43800,"ELEMENT_SET_NO":999,"REV_AT_EPOCH":41572,"BSTAR":0.00025251215,"MEAN_MOTION_DOT":0.00005067,"MEAN_MOTION_DDOT":0},{"OBJECT_NAME":"ICEYE-X4","OBJECT_ID":"2019-038D","EPOCH":"2026-07-06T07:13:50.535840","CLASSIFICATION_TYPE":"U","MEAN_MOTION":15.29743269,"ECCENTRICITY":0.00120321,"INCLINATION":97.875,"RA_OF_ASC_NODE":221.3419,"ARG_OF_PERICENTER":230.9502,"MEAN_ANOMALY":129.0667,"EPHEMERIS_TYPE":0,"NORAD_CAT_ID":44390,"ELEMENT_SET_NO":999,"REV_AT_EPOCH":38472,"BSTAR":0.00036726064,"MEAN_MOTION_DOT":0.00010524,"MEAN_MOTION_DDOT":0},{"OBJECT_NAME":"ICEYE-X7","OBJECT_ID":"2020-068L","EPOCH":"2026-07-06T06:47:01.875840","CLASSIFICATION_TYPE":"U","MEAN_MOTION":15.31961867,"ECCENTRICITY":0.00053006,"INCLINATION":97.7505,"RA_OF_ASC_NODE":154.6826,"ARG_OF_PERICENTER":253.444,"MEAN_ANOMALY":106.6219,"EPHEMERIS_TYPE":0,"NORAD_CAT_ID":46496,"ELEMENT_SET_NO":999,"REV_AT_EPOCH":31771,"BSTAR":0.00035167481,"MEAN_MOTION_DOT":0.00010777,"MEAN_MOTION_DDOT":0},{"OBJECT_NAME":"ICEYE-X6","OBJECT_ID":"2020-068M","EPOCH":"2026-07-06T03:29:16.315008","CLASSIFICATION_TYPE":"U","MEAN_MOTION":15.04626372,"ECCENTRICITY":0.00078976,"INCLINATION":98.0972,"RA_OF_ASC_NODE":181.724,"ARG_OF_PERICENTER":36.2762,"MEAN_ANOMALY":323.8997,"EPHEMERIS_TYPE":0,"NORAD_CAT_ID":46497,"ELEMENT_SET_NO":999,"REV_AT_EPOCH":31608,"BSTAR":0.00024546419,"MEAN_MOTION_DOT":0.00003383,"MEAN_MOTION_DDOT":0},{"OBJECT_NAME":"ICEYE-X21","OBJECT_ID":"2023-001AS","EPOCH":"2026-06-24T05:11:18.420288","CLASSIFICATION_TYPE":"U","MEAN_MOTION":16.24069885,"ECCENTRICITY":0.00123774,"INCLINATION":97.3001,"RA_OF_ASC_NODE":262.6152,"ARG_OF_PERICENTER":285.9702,"MEAN_ANOMALY":74.0225,"EPHEMERIS_TYPE":0,"NORAD_CAT_ID":55049,"ELEMENT_SET_NO":999,"REV_AT_EPOCH":19475,"BSTAR":0.000602142,"MEAN_MOTION_DOT":0.01585954,"MEAN_MOTION_DDOT":0.000002396838},{"OBJECT_NAME":"ICEYE-X25","OBJECT_ID":"2023-084AH","EPOCH":"2026-07-06T06:52:55.669152","CLASSIFICATION_TYPE":"U","MEAN_MOTION":15.62185786,"ECCENTRICITY":0.0003809,"INCLINATION":97.5908,"RA_OF_ASC_NODE":334.8767,"ARG_OF_PERICENTER":213.8733,"MEAN_ANOMALY":146.2282,"EPHEMERIS_TYPE":0,"NORAD_CAT_ID":56963,"ELEMENT_SET_NO":999,"REV_AT_EPOCH":17095,"BSTAR":0.00051279921,"MEAN_MOTION_DOT":0.00045107,"MEAN_MOTION_DDOT":0},{"OBJECT_NAME":"ICEYE-X31","OBJECT_ID":"2023-174AJ","EPOCH":"2026-07-06T07:22:11.705088","CLASSIFICATION_TYPE":"U","MEAN_MOTION":15.34972177,"ECCENTRICITY":0.00018018,"INCLINATION":97.3769,"RA_OF_ASC_NODE":263.0492,"ARG_OF_PERICENTER":215.3161,"MEAN_ANOMALY":144.7964,"EPHEMERIS_TYPE":0,"NORAD_CAT_ID":58288,"ELEMENT_SET_NO":999,"REV_AT_EPOCH":14768,"BSTAR":0.00045625447,"MEAN_MOTION_DOT":0.00015411,"MEAN_MOTION_DDOT":0},{"OBJECT_NAME":"ICEYE-X34","OBJECT_ID":"2023-174AQ","EPOCH":"2026-07-05T19:48:46.743264","CLASSIFICATION_TYPE":"U","MEAN_MOTION":15.69018717,"ECCENTRICITY":0.00018314,"INCLINATION":97.3865,"RA_OF_ASC_NODE":278.9665,"ARG_OF_PERICENTER":177.4693,"MEAN_ANOMALY":182.6578,"EPHEMERIS_TYPE":0,"NORAD_CAT_ID":58294,"ELEMENT_SET_NO":999,"REV_AT_EPOCH":14866,"BSTAR":0.0013724175,"MEAN_MOTION_DOT":0.00160846,"MEAN_MOTION_DDOT":0},{"OBJECT_NAME":"ICEYE-X35","OBJECT_ID":"2023-174AY","EPOCH":"2026-07-06T07:25:09.246720","CLASSIFICATION_TYPE":"U","MEAN_MOTION":15.54452386,"ECCENTRICITY":0.00084805,"INCLINATION":97.3782,"RA_OF_ASC_NODE":272.4326,"ARG_OF_PERICENTER":135.5744,"MEAN_ANOMALY":224.6191,"EPHEMERIS_TYPE":0,"NORAD_CAT_ID":58302,"ELEMENT_SET_NO":999,"REV_AT_EPOCH":14831,"BSTAR":0.00075941944,"MEAN_MOTION_DOT":0.00050116,"MEAN_MOTION_DDOT":0},{"OBJECT_NAME":"ICEYE-X38","OBJECT_ID":"2024-043C","EPOCH":"2026-07-06T07:08:27.991680","CLASSIFICATION_TYPE":"U","MEAN_MOTION":15.13036967,"ECCENTRICITY":0.0003047,"INCLINATION":97.8428,"RA_OF_ASC_NODE":331.5741,"ARG_OF_PERICENTER":44.5769,"MEAN_ANOMALY":315.5705,"EPHEMERIS_TYPE":0,"NORAD_CAT_ID":59100,"ELEMENT_SET_NO":999,"REV_AT_EPOCH":11456,"BSTAR":0.00025667013,"MEAN_MOTION_DOT":0.00004466,"MEAN_MOTION_DDOT":0},{"OBJECT_NAME":"ICEYE-X37","OBJECT_ID":"2024-043E","EPOCH":"2026-07-06T02:44:54.023424","CLASSIFICATION_TYPE":"U","MEAN_MOTION":15.06255484,"ECCENTRICITY":0.00138325,"INCLINATION":97.8342,"RA_OF_ASC_NODE":324.4161,"ARG_OF_PERICENTER":308.3601,"MEAN_ANOMALY":51.6381,"EPHEMERIS_TYPE":0,"NORAD_CAT_ID":59102,"ELEMENT_SET_NO":999,"REV_AT_EPOCH":12793,"BSTAR":0.00031100007,"MEAN_MOTION_DOT":0.00004508,"MEAN_MOTION_DDOT":0},{"OBJECT_NAME":"ICEYE-X36","OBJECT_ID":"2024-043F","EPOCH":"2026-07-06T04:10:28.712352","CLASSIFICATION_TYPE":"U","MEAN_MOTION":15.07191348,"ECCENTRICITY":0.00044777,"INCLINATION":97.8398,"RA_OF_ASC_NODE":325.5866,"ARG_OF_PERICENTER":248.5893,"MEAN_ANOMALY":111.4857,"EPHEMERIS_TYPE":0,"NORAD_CAT_ID":59103,"ELEMENT_SET_NO":999,"REV_AT_EPOCH":12800,"BSTAR":0.00028927019,"MEAN_MOTION_DOT":0.00004289,"MEAN_MOTION_DDOT":0},{"OBJECT_NAME":"ICEYE-X43","OBJECT_ID":"2024-149BZ","EPOCH":"2026-07-06T04:16:15.184128","CLASSIFICATION_TYPE":"U","MEAN_MOTION":14.99762021,"ECCENTRICITY":0.00072454,"INCLINATION":97.6814,"RA_OF_ASC_NODE":263.8878,"ARG_OF_PERICENTER":25.2112,"MEAN_ANOMALY":334.9464,"EPHEMERIS_TYPE":0,"NORAD_CAT_ID":60539,"ELEMENT_SET_NO":999,"REV_AT_EPOCH":10296,"BSTAR":0.00031697825,"MEAN_MOTION_DOT":0.0000386,"MEAN_MOTION_DDOT":0},{"OBJECT_NAME":"ICEYE-X39","OBJECT_ID":"2024-149CG","EPOCH":"2026-07-06T03:44:50.862336","CLASSIFICATION_TYPE":"U","MEAN_MOTION":15.0002682,"ECCENTRICITY":0.00069183,"INCLINATION":97.6762,"RA_OF_ASC_NODE":263.9225,"ARG_OF_PERICENTER":70.3542,"MEAN_ANOMALY":289.8428,"EPHEMERIS_TYPE":0,"NORAD_CAT_ID":60546,"ELEMENT_SET_NO":999,"REV_AT_EPOCH":10296,"BSTAR":0.00037157811,"MEAN_MOTION_DOT":0.00004568,"MEAN_MOTION_DDOT":0},{"OBJECT_NAME":"ICEYE-X33","OBJECT_ID":"2024-149CJ","EPOCH":"2026-07-06T04:04:18.706944","CLASSIFICATION_TYPE":"U","MEAN_MOTION":15.00913216,"ECCENTRICITY":0.00019319,"INCLINATION":97.7328,"RA_OF_ASC_NODE":266.2123,"ARG_OF_PERICENTER":77.378,"MEAN_ANOMALY":282.766,"EPHEMERIS_TYPE":0,"NORAD_CAT_ID":60548,"ELEMENT_SET_NO":999,"REV_AT_EPOCH":10305,"BSTAR":0.00042091319,"MEAN_MOTION_DOT":0.00005302,"MEAN_MOTION_DDOT":0}]}
